[{"OBJECT_NAME":"ALISIO-1","OBJECT_ID":"2023-185M","EPOCH":"2026-03-09T23:05:14.691840","MEAN_MOTION":15.16299812,"ECCENTRICITY":0.00049564,"INCLINATION":97.5439,"RA_OF_ASC_NODE":142.8755,"ARG_OF_PERICENTER":306.4633,"MEAN_ANOMALY":53.6142,"EPHEMERIS_TYPE":0,"CLASSIFICATION_TYPE":"U","NORAD_CAT_ID":58562,"ELEMENT_SET_NO":999,"REV_AT_EPOCH":12351,"BSTAR":0.00026900054,"MEAN_MOTION_DOT":5.144e-5,"MEAN_MOTION_DDOT":0},{"OBJECT_NAME":"OBJECT A","OBJECT_ID":"2026-027A","EPOCH":"2026-03-09T21:37:47.784000","MEAN_MOTION":15.17715556,"ECCENTRICITY":0.00101917,"INCLINATION":97.4902,"RA_OF_ASC_NODE":197.9118,"ARG_OF_PERICENTER":193.8683,"MEAN_ANOMALY":166.2272,"EPHEMERIS_TYPE":0,"CLASSIFICATION_TYPE":"U","NORAD_CAT_ID":67746,"ELEMENT_SET_NO":999,"REV_AT_EPOCH":389,"BSTAR":0.00052290801,"MEAN_MOTION_DOT":0.00010498,"MEAN_MOTION_DDOT":0}]
